STARLINK-31027
1 58720U 24002R   26092.83335647  .00270229  00000+0  37304-2 0  9998
2 58720  53.1482 110.7733 0012883  38.1188 188.4429 15.55664390  5960
